[{"OBJECT_NAME":"STARLINK-11209 [DTC]","OBJECT_ID":"2024-171A","EPOCH":"2026-03-09T13:06:49.472352","MEAN_MOTION":15.69709498,"ECCENTRICITY":0.00010259,"INCLINATION":53.1597,"RA_OF_ASC_NODE":177.1655,"ARG_OF_PERICENTER":96.1778,"MEAN_ANOMALY":263.9357,"EPHEMERIS_TYPE":0,"CLASSIFICATION_TYPE":"U","NORAD_CAT_ID":61200,"ELEMENT_SET_NO":999,"REV_AT_EPOCH":8528,"BSTAR":-1.145181e-6,"MEAN_MOTION_DOT":-7.27e-6,"MEAN_MOTION_DDOT":0},{"OBJECT_NAME":"COSMOS 1408 DEB","OBJECT_ID":"1982-092SW","EPOCH":"2026-03-09T18:18:30.050784","MEAN_MOTION":15.71290453,"ECCENTRICITY":0.00149584,"INCLINATION":82.612,"RA_OF_ASC_NODE":337.7981,"ARG_OF_PERICENTER":124.2456,"MEAN_ANOMALY":236.0226,"EPHEMERIS_TYPE":0,"CLASSIFICATION_TYPE":"U","NORAD_CAT_ID":50058,"ELEMENT_SET_NO":999,"REV_AT_EPOCH":24167,"BSTAR":0.00037213581,"MEAN_MOTION_DOT":0.00047626,"MEAN_MOTION_DDOT":0}]
